{"type": "FeatureCollection", "features": [ {"type": "Feature", "properties": {"norad_id": 66459, "name": "STARLINK-35449", "group": "last-30-days", "lat": -38.73091085318252, "lon": 58.497681504667064, "alt_km": 407.3980428071045, "timestamp": "2025-12-04T17:48:38.962907+00:00", "meta": {"OBJECT_NAME": "STARLINK-35449", "OBJECT_ID": "2025-262D", "EPOCH": "2025-12-04T08:00:01.999872", "MEAN_MOTION": 15.55859211, "ECCENTRICITY": 0.00011143, "INCLINATION": 42.9993, "RA_OF_ASC_NODE": 120.302, "ARG_OF_PERICENTER": 269.4449, "MEAN_ANOMALY": 253.135, "EPHEMERIS_TYPE": 0, "CLASSIFICATION_TYPE": "U", "NORAD_CAT_ID": 66459, "ELEMENT_SET_NO": 999, "REV_AT_EPOCH": 428, "BSTAR": -0.033960871, "MEAN_MOTION_DOT": -0.02141784, "MEAN_MOTION_DDOT": 0}, "tle": {"line1": "1 66459U 25262D   25338.33335648 -.02141784  00000+0 -33961-1 0  9994", "line2": "2 66459  42.9993 120.3020 0001114 269.4449 253.1350 15.55859211  4286"}}, "geometry": {"type": "Point", "coordinates": [58.497681504667064, -38.73091085318252]}}, {"type": "Feature", "properties": {"norad_id": 66460, "name": "STARLINK-35424", "group": "last-30-days", "lat": -38.04466921830857, "lon": 60.771246189804614, "alt_km": 407.34264887556037, "timestamp": "2025-12-04T17:48:38.962917+00:00", "meta": {"OBJECT_NAME": "STARLINK-35424", "OBJECT_ID": "2025-262E", "EPOCH": "2025-12-04T08:00:01.999872", "MEAN_MOTION": 15.55859779, "ECCENTRICITY": 0.00011281, "INCLINATION": 42.9992, "RA_OF_ASC_NODE": 120.2972, "ARG_OF_PERICENTER": 272.6507, "MEAN_ANOMALY": 251.8457, "EPHEMERIS_TYPE": 0, "CLASSIFICATION_TYPE": "U", "NORAD_CAT_ID": 66460, "ELEMENT_SET_NO": 999, "REV_AT_EPOCH": 428, "BSTAR": -0.033985229, "MEAN_MOTION_DOT": -0.02143197, "MEAN_MOTION_DDOT": 0}, "tle": {"line1": "1 66460U 25262E   25338.33335648 -.02143197  00000+0 -33985-1 0  9992", "line2": "2 66460  42.9992 120.2972 0001128 272.6507 251.8457 15.55859779  4280"}}, "geometry": {"type": "Point", "coordinates": [60.771246189804614, -38.04466921830857]}}, {"type": "Feature", "properties": {"norad_id": 66461, "name": "STARLINK-35132", "group": "last-30-days", "lat": -37.314454065704396, "lon": 63.004153796786944, "alt_km": 407.330312669822, "timestamp": "2025-12-04T17:48:38.962926+00:00", "meta": {"OBJECT_NAME": "STARLINK-35132", "OBJECT_ID": "2025-262F", "EPOCH": "2025-12-04T08:00:01.999872", "MEAN_MOTION": 15.55855932, "ECCENTRICITY": 0.00011341, "INCLINATION": 42.9993, "RA_OF_ASC_NODE": 120.2923, "ARG_OF_PERICENTER": 271.3487, "MEAN_ANOMALY": 255.0684, "EPHEMERIS_TYPE": 0, "CLASSIFICATION_TYPE": "U", "NORAD_CAT_ID": 66461, "ELEMENT_SET_NO": 999, "REV_AT_EPOCH": 428, "BSTAR": -0.033929903, "MEAN_MOTION_DOT": -0.02139832, "MEAN_MOTION_DDOT": 0}, "tle": {"line1": "1 66461U 25262F   25338.33335648 -.02139832  00000+0 -33930-1 0  9994", "line2": "2 66461  42.9993 120.2923 0001134 271.3487 255.0684 15.55855932  4283"}}, "geometry": {"type": "Point", "coordinates": [63.004153796786944, -37.314454065704396]}}, {"type": "Feature", "properties": {"norad_id": 66462, "name": "STARLINK-35499", "group": "last-30-days", "lat": -36.54228921387709, "lon": 65.19388455256296, "alt_km": 407.4073327476126, "timestamp": "2025-12-04T17:48:38.962938+00:00", "meta": {"OBJECT_NAME": "STARLINK-35499", "OBJECT_ID": "2025-262G", "EPOCH": "2025-12-04T08:00:01.999872", "MEAN_MOTION": 15.55851598, "ECCENTRICITY": 0.00010594, "INCLINATION": 42.9993, "RA_OF_ASC_NODE": 120.287, "ARG_OF_PERICENTER": 266.7307, "MEAN_ANOMALY": 261.6081, "EPHEMERIS_TYPE": 0, "CLASSIFICATION_TYPE": "U", "NORAD_CAT_ID": 66462, "ELEMENT_SET_NO": 999, "REV_AT_EPOCH": 428, "BSTAR": -0.033864884, "MEAN_MOTION_DOT": -0.02135836, "MEAN_MOTION_DDOT": 0}, "tle": {"line1": "1 66462U 25262G   25338.33335648 -.02135836  00000+0 -33865-1 0  9992", "line2": "2 66462  42.9993 120.2870 0001059 266.7307 261.6081 15.55851598  4288"}}, "geometry": {"type": "Point", "coordinates": [65.19388455256296, -36.54228921387709]}}, {"type": "Feature", "properties": {"norad_id": 66463, "name": "STARLINK-35463", "group": "last-30-days", "lat": -34.88467820957347, "lon": 69.43355214522835, "alt_km": 407.18455917798383, "timestamp": "2025-12-04T17:48:38.962948+00:00", "meta": {"OBJECT_NAME": "STARLINK-35463", "OBJECT_ID": "2025-262H", "EPOCH": "2025-12-04T08:00:01.999872", "MEAN_MOTION": 15.5585865, "ECCENTRICITY": 0.00012184, "INCLINATION": 42.9993, "RA_OF_ASC_NODE": 120.2773, "ARG_OF_PERICENTER": 271.8123, "MEAN_ANOMALY": 260.3516, "EPHEMERIS_TYPE": 0, "CLASSIFICATION_TYPE": "U", "NORAD_CAT_ID": 66463, "ELEMENT_SET_NO": 999, "REV_AT_EPOCH": 428, "BSTAR": -0.033935801, "MEAN_MOTION_DOT": -0.02140411, "MEAN_MOTION_DDOT": 0}, "tle": {"line1": "1 66463U 25262H   25338.33335648 -.02140411  00000+0 -33936-1 0  9997", "line2": "2 66463  42.9993 120.2773 0001218 271.8123 260.3516 15.55858650  4286"}}, "geometry": {"type": "Point", "coordinates": [69.43355214522835, -34.88467820957347]}}, {"type": "Feature", "properties": {"norad_id": 66464, "name": "STARLINK-35435", "group": "last-30-days", "lat": -35.73272627933416, "lon": 67.33501051287438, "alt_km": 407.2475884356354, "timestamp": "2025-12-04T17:48:38.962958+00:00", "meta": {"OBJECT_NAME": "STARLINK-35435", "OBJECT_ID": "2025-262J", "EPOCH": "2025-12-04T08:00:01.999872", "MEAN_MOTION": 15.55860228, "ECCENTRICITY": 0.00011926, "INCLINATION": 42.9995, "RA_OF_ASC_NODE": 120.2823, "ARG_OF_PERICENTER": 270.5727, "MEAN_ANOMALY": 259.6743, "EPHEMERIS_TYPE": 0, "CLASSIFICATION_TYPE": "U", "NORAD_CAT_ID": 66464, "ELEMENT_SET_NO": 999, "REV_AT_EPOCH": 428, "BSTAR": -0.033990949, "MEAN_MOTION_DOT": -0.02143592, "MEAN_MOTION_DDOT": 0}, "tle": {"line1": "1 66464U 25262J   25338.33335648 -.02143592  00000+0 -33991-1 0  9992", "line2": "2 66464  42.9995 120.2823 0001192 270.5727 259.6743 15.55860228  4289"}}, "geometry": {"type": "Point", "coordinates": [67.33501051287438, -35.73272627933416]}}, {"type": "Feature", "properties": {"norad_id": 66465, "name": "STARLINK-35448", "group": "last-30-days", "lat": -33.08273855747254, "lon": 73.50400041077728, "alt_km": 407.2601140636816, "timestamp": "2025-12-04T17:48:38.962970+00:00", "meta": {"OBJECT_NAME": "STARLINK-35448", "OBJECT_ID": "2025-262K", "EPOCH": "2025-12-04T08:00:01.999872", "MEAN_MOTION": 15.55858608, "ECCENTRICITY": 0.00011072, "INCLINATION": 42.9994, "RA_OF_ASC_NODE": 120.2678, "ARG_OF_PERICENTER": 266.2714, "MEAN_ANOMALY": 269.7285, "EPHEMERIS_TYPE": 0, "CLASSIFICATION_TYPE": "U", "NORAD_CAT_ID": 66465, "ELEMENT_SET_NO": 999, "REV_AT_EPOCH": 428, "BSTAR": -0.033942834, "MEAN_MOTION_DOT": -0.02140727, "MEAN_MOTION_DDOT": 0}, "tle": {"line1": "1 66465U 25262K   25338.33335648 -.02140727  00000+0 -33943-1 0  9997", "line2": "2 66465  42.9994 120.2678 0001107 266.2714 269.7285 15.55858608  4283"}}, "geometry": {"type": "Point", "coordinates": [73.50400041077728, -33.08273855747254]}}, {"type": "Feature", "properties": {"norad_id": 66466, "name": "STARLINK-35388", "group": "last-30-days", "lat": -32.133643159797344, "lon": 75.47216842356549, "alt_km": 407.1188617402586, "timestamp": "2025-12-04T17:48:38.962980+00:00", "meta": {"OBJECT_NAME": "STARLINK-35388", "OBJECT_ID": "2025-262L", "EPOCH": "2025-12-04T08:00:01.999872", "MEAN_MOTION": 15.55859936, "ECCENTRICITY": 0.00012637, "INCLINATION": 42.9991, "RA_OF_ASC_NODE": 120.2618, "ARG_OF_PERICENTER": 267.5225, "MEAN_ANOMALY": 270.393, "EPHEMERIS_TYPE": 0, "CLASSIFICATION_TYPE": "U", "NORAD_CAT_ID": 66466, "ELEMENT_SET_NO": 999, "REV_AT_EPOCH": 428, "BSTAR": -0.033982219, "MEAN_MOTION_DOT": -0.02143131, "MEAN_MOTION_DDOT": 0}, "tle": {"line1": "1 66466U 25262L   25338.33335648 -.02143131  00000+0 -33982-1 0  9993", "line2": "2 66466  42.9991 120.2618 0001263 267.5225 270.3930 15.55859936  4289"}}, "geometry": {"type": "Point", "coordinates": [75.47216842356549, -32.133643159797344]}}, {"type": "Feature", "properties": {"norad_id": 66467, "name": "STARLINK-35682", "group": "last-30-days", "lat": -33.99932581063418, "lon": 71.49301632418275, "alt_km": 407.3024339115609, "timestamp": "2025-12-04T17:48:38.962992+00:00", "meta": {"OBJECT_NAME": "STARLINK-35682", "OBJECT_ID": "2025-262M", "EPOCH": "2025-12-04T08:00:01.999872", "MEAN_MOTION": 15.55857452, "ECCENTRICITY": 0.00011845, "INCLINATION": 42.9993, "RA_OF_ASC_NODE": 120.2725, "ARG_OF_PERICENTER": 262.3513, "MEAN_ANOMALY": 271.7325, "EPHEMERIS_TYPE": 0, "CLASSIFICATION_TYPE": "U", "NORAD_CAT_ID": 66467, "ELEMENT_SET_NO": 999, "REV_AT_EPOCH": 428, "BSTAR": -0.033931559, "MEAN_MOTION_DOT": -0.02140066, "MEAN_MOTION_DDOT": 0}, "tle": {"line1": "1 66467U 25262M   25338.33335648 -.02140066  00000+0 -33932-1 0  9993", "line2": "2 66467  42.9993 120.2725 0001184 262.3513 271.7325 15.55857452  4280"}}, "geometry": {"type": "Point", "coordinates": [71.49301632418275, -33.99932581063418]}}, {"type": "Feature", "properties": {"norad_id": 66468, "name": "STARLINK-35331", "group": "last-30-days", "lat": -31.15504856081034, "lon": 77.40060835496833, "alt_km": 407.05531237070954, "timestamp": "2025-12-04T17:48:38.963002+00:00", "meta": {"OBJECT_NAME": "STARLINK-35331", "OBJECT_ID": "2025-262N", "EPOCH": "2025-12-04T08:00:01.999872", "MEAN_MOTION": 15.55859764, "ECCENTRICITY": 0.0001234, "INCLINATION": 42.9992, "RA_OF_ASC_NODE": 120.2576, "ARG_OF_PERICENTER": 270.2147, "MEAN_ANOMALY": 269.6168, "EPHEMERIS_TYPE": 0, "CLASSIFICATION_TYPE": "U", "NORAD_CAT_ID": 66468, "ELEMENT_SET_NO": 999, "REV_AT_EPOCH": 428, "BSTAR": -0.033949832, "MEAN_MOTION_DOT": -0.02141287, "MEAN_MOTION_DDOT": 0}, "tle": {"line1": "1 66468U 25262N   25338.33335648 -.02141287  00000+0 -33950-1 0  9990", "line2": "2 66468  42.9992 120.2576 0001234 270.2147 269.6168 15.55859764  4280"}}, "geometry": {"type": "Point", "coordinates": [77.40060835496833, -31.15504856081034]}}]}